[{"OBJECT_NAME":"STARLINK-1523","OBJECT_ID":"2020-055B","EPOCH":"2026-03-10T00:00:02.999808","MEAN_MOTION":15.18858191,"ECCENTRICITY":1.299e-5,"INCLINATION":53.1064,"RA_OF_ASC_NODE":124.8251,"ARG_OF_PERICENTER":79.5973,"MEAN_ANOMALY":273.0855,"EPHEMERIS_TYPE":0,"CLASSIFICATION_TYPE":"U","NORAD_CAT_ID":46028,"ELEMENT_SET_NO":999,"REV_AT_EPOCH":574,"BSTAR":0.0058060297,"MEAN_MOTION_DOT":0.00124296,"MEAN_MOTION_DDOT":0},{"OBJECT_NAME":"SL-3 R\/B","OBJECT_ID":"1988-032B","EPOCH":"2026-03-09T22:19:17.300640","MEAN_MOTION":15.19913684,"ECCENTRICITY":0.00244288,"INCLINATION":97.5196,"RA_OF_ASC_NODE":52.1801,"ARG_OF_PERICENTER":230.5802,"MEAN_ANOMALY":129.327,"EPHEMERIS_TYPE":0,"CLASSIFICATION_TYPE":"U","NORAD_CAT_ID":19046,"ELEMENT_SET_NO":999,"REV_AT_EPOCH":5214,"BSTAR":0.00028784627,"MEAN_MOTION_DOT":6.162e-5,"MEAN_MOTION_DDOT":0}]
